     2.10           G: GLO NAV DATA                         RINEX VERSION / TYPE
sbf2rin-12.1.2                          15-MAR-21 15:27     PGM / RUN BY / DATE 
    18                                                      LEAP SECONDS        
                                                            END OF HEADER       
16 21  3  9 23 15  0.0-1.228693872690E-05-9.094947017729E-13 8.364000000000E+04
   -1.177648242188E+04 5.555114746094E-01 0.000000000000E+00 0.000000000000E+00
    5.319547851563E+03-2.961819648743E+00-0.000000000000E+00-1.000000000000E+00
    2.194074072266E+04 1.027249336243E+00-2.793967723846E-09 0.000000000000E+00
18 21  3  9 23 15  0.0 6.923638284206E-05 0.000000000000E+00 8.364000000000E+04
   -1.833627246094E+04 1.749610900879E-02-1.862645149231E-09 0.000000000000E+00
   -1.760325390625E+04 3.339128494263E-01 1.862645149231E-09-3.000000000000E+00
    1.741570800781E+03 3.600688934326E+00-9.313225746155E-10 0.000000000000E+00
14 21  3  9 23 15  0.0 6.183050572872E-05 0.000000000000E+00 8.364000000000E+04
    1.999125488281E+03 2.507591247559E-02 1.862645149231E-09 0.000000000000E+00
   -2.472174218750E+04-8.242883682251E-01 9.313225746155E-10-7.000000000000E+00
    5.945900878906E+03-3.439413070679E+00 0.000000000000E+00 0.000000000000E+00
08 21  3  9 23 15  0.0-5.780067294836E-05 0.000000000000E+00 8.364000000000E+04
    1.485359716797E+04-2.630513191223E+00 3.725290298462E-09 0.000000000000E+00
    5.153869628906E+03 7.865867614746E-01-1.862645149231E-09 6.000000000000E+00
    2.014964355469E+04 1.740908622742E+00-0.000000000000E+00 0.000000000000E+00
04 21  3 10 18 15  0.0 7.732864469290E-05 1.818989403546E-12 6.567000000000E+04
   -1.589539111328E+04-1.488951683044E+00 9.313225746155E-10 0.000000000000E+00
   -8.245680175781E+03-1.993304252625E+00-9.313225746155E-10 6.000000000000E+00
    1.819241357422E+04-2.208419799805E+00-2.793967723846E-09 0.000000000000E+00
14 21  3 10 18 15  0.0 6.185751408339E-05 0.000000000000E+00 6.567000000000E+04
   -1.622639794922E+04 2.488302230835E+00 9.313225746155E-10 0.000000000000E+00
   -7.523070800781E+03-1.100635528564E-01-9.313225746155E-10-7.000000000000E+00
    1.819646484375E+04 2.173080444336E+00-2.793967723846E-09 0.000000000000E+00
03 21  3 10 18 15  0.0 3.218371421099E-05 0.000000000000E+00 6.567000000000E+04
   -1.547428955078E+04-3.777294158936E-01-9.313225746155E-10 0.000000000000E+00
   -1.998864599609E+04-2.743234634399E-01-4.656612873077E-09 5.000000000000E+00
    3.250511718750E+03-3.538372039795E+00-1.862645149231E-09 0.000000000000E+00
05 21  3 10 18 15  0.0 6.793253123760E-05 9.094947017729E-13 6.567000000000E+04
   -7.505501464844E+03-1.743743896484E+00 1.862645149231E-09 0.000000000000E+00
    8.132337890625E+03-2.618546485901E+00 1.862645149231E-09 1.000000000000E+00
    2.299666845703E+04 3.549995422363E-01-1.862645149231E-09 0.000000000000E+00
15 21  3 10 18 15  0.0 1.050038263202E-04-0.000000000000E+00 6.567000000000E+04
   -2.530326855469E+04 4.456996917725E-01 1.862645149231E-09 0.000000000000E+00
    3.928540039063E+02 1.198072433472E-01-1.862645149231E-09 0.000000000000E+00
    3.193242675781E+03 3.532429695129E+00-9.313225746155E-10 0.000000000000E+00
21 21  3 10 18 15  0.0-1.933872699738E-04-2.728484105319E-12 6.567000000000E+04
    4.653709960938E+03-1.231962203979E+00 9.313225746155E-10 0.000000000000E+00
    1.264345703125E+04 2.703260421753E+00 3.725290298462E-09 4.000000000000E+00
    2.165840429688E+04-1.315181732178E+00-0.000000000000E+00 0.000000000000E+00
13 21  3 10 18 15  0.0-5.183275789022E-05-0.000000000000E+00 6.570000000000E+04
    2.922812011719E+03 3.103057861328E+00-0.000000000000E+00 0.000000000000E+00
   -1.116254687500E+04-3.006505966187E-01 0.000000000000E+00-2.000000000000E+00
    2.272718994141E+04-5.457477569580E-01-2.793967723846E-09 0.000000000000E+00
23 21  3 10 18 15  0.0 3.711786121130E-04 1.818989403546E-12 6.573000000000E+04
    1.313589257813E+04-5.263719558716E-01-2.793967723846E-09 0.000000000000E+00
   -2.126591113281E+04 5.139503479004E-01-9.313225746155E-10 3.000000000000E+00
    5.060485351563E+03 3.523888587952E+00-9.313225746155E-10 0.000000000000E+00
22 21  3 10 18 15  0.0-1.019090414047E-04-1.818989403546E-12 6.576000000000E+04
    1.276091552734E+04-1.410318374634E+00-0.000000000000E+00 0.000000000000E+00
   -3.852103515625E+03 2.630958557129E+00 1.862645149231E-09-3.000000000000E+00
    2.171399072266E+04 1.304174423218E+00-9.313225746155E-10 0.000000000000E+00
12 21  3 10 18 15  0.0 2.114670351148E-04 3.637978807092E-12 6.576000000000E+04
    1.974297021484E+04 1.888188362122E+00-9.313225746155E-10 0.000000000000E+00
   -8.221861816406E+03-2.784204483032E-01 1.862645149231E-09-1.000000000000E+00
    1.394264599609E+04-2.839426994324E+00-9.313225746155E-10 0.000000000000E+00
14 21  3 10 18 45  0.0 6.185844540596E-05 0.000000000000E+00 6.660000000000E+04
   -1.136349658203E+04 2.867921829224E+00 0.000000000000E+00 0.000000000000E+00
   -8.112979003906E+03-5.587406158447E-01-9.313225746155E-10-7.000000000000E+00
    2.135466162109E+04 1.313263893127E+00-2.793967723846E-09 0.000000000000E+00
04 21  3 10 18 45  0.0 7.733236998320E-05 1.818989403546E-12 6.660000000000E+04
   -1.848509082031E+04-1.342806816101E+00-0.000000000000E+00 0.000000000000E+00
   -1.120583740234E+04-1.285519599915E+00-2.793967723846E-09 6.000000000000E+00
    1.356662451172E+04-2.898125648499E+00-2.793967723846E-09 0.000000000000E+00
13 21  3 10 18 45  0.0-5.183462053537E-05-0.000000000000E+00 6.660000000000E+04
    8.260264648438E+03 2.780324935913E+00-9.313225746155E-10 0.000000000000E+00
   -1.207067236328E+04-6.891117095947E-01 9.313225746155E-10-2.000000000000E+00
    2.087718457031E+04-1.496405601501E+00-1.862645149231E-09 0.000000000000E+00
05 21  3 10 18 45  0.0 6.793439388275E-05 9.094947017729E-13 6.660000000000E+04
   -1.098291601563E+04-2.086878776550E+00 1.862645149231E-09 0.000000000000E+00
    3.662436523438E+03-2.307891845703E+00 0.000000000000E+00 1.000000000000E+00
    2.273980566406E+04-6.386222839355E-01-1.862645149231E-09 0.000000000000E+00
03 21  3 10 18 45  0.0 3.218371421099E-05 0.000000000000E+00 6.660000000000E+04
   -1.568517968750E+04 1.757879257202E-01-1.862645149231E-09 0.000000000000E+00
   -1.982342773438E+04 4.328632354736E-01-4.656612873077E-09 5.000000000000E+00
   -3.162054199219E+03-3.540277481079E+00-1.862645149231E-09 0.000000000000E+00
15 21  3 10 18 45  0.0 1.050028949976E-04-0.000000000000E+00 6.660000000000E+04
   -2.373302490234E+04 1.279397010803E+00 9.313225746155E-10 0.000000000000E+00
    4.220239257813E+02-1.241521835327E-01-1.862645149231E-09 0.000000000000E+00
    9.345989257813E+03 3.259581565857E+00-1.862645149231E-09 0.000000000000E+00
22 21  3 10 18 45  0.0-1.019127666950E-04-1.818989403546E-12 6.660000000000E+04
    1.051503662109E+04-1.055912971497E+00 9.313225746155E-10 0.000000000000E+00
    1.259490234375E+03 3.004196166992E+00 2.793967723846E-09-3.000000000000E+00
    2.318941259766E+04 3.247938156128E-01-9.313225746155E-10 0.000000000000E+00
23 21  3 10 18 45  0.0 3.711832687259E-04 1.818989403546E-12 6.684000000000E+04
    1.199012304688E+04-7.025451660156E-01-1.862645149231E-09 0.000000000000E+00
   -1.956585498047E+04 1.373167991638E+00 0.000000000000E+00 3.000000000000E+00
    1.112568066406E+04 3.171422958374E+00-1.862645149231E-09 0.000000000000E+00
24 21  3 10 18 45  0.0 3.449711948633E-05 1.818989403546E-12 6.732000000000E+04
    7.462041992188E+03-6.955909729004E-02-3.725290298462E-09 0.000000000000E+00
   -2.429201757813E+04-3.513565063477E-01-1.862645149231E-09 2.000000000000E+00
   -2.229789062500E+03 3.562543869019E+00-9.313225746155E-10 0.000000000000E+00
14 21  3 10 19 15  0.0 6.185937672853E-05 0.000000000000E+00 6.840000000000E+04
   -6.080239257813E+03 2.951810836792E+00 0.000000000000E+00 0.000000000000E+00
   -9.551091308594E+03-1.034764289856E+00-0.000000000000E+00-7.000000000000E+00
    2.286317138672E+04 3.519716262817E-01-2.793967723846E-09 0.000000000000E+00
04 21  3 10 19 15  0.0 7.733516395092E-05 1.818989403546E-12 6.840000000000E+04
   -2.056696484375E+04-9.273300170898E-01-9.313225746155E-10 0.000000000000E+00
   -1.287119775391E+04-5.736904144287E-01-3.725290298462E-09 6.000000000000E+00
    7.893466796875E+03-3.364563941956E+00-2.793967723846E-09 0.000000000000E+00
05 21  3 10 19 15  0.0 6.793532520533E-05 9.094947017729E-13 6.840000000000E+04
   -1.487661132813E+04-2.195161819458E+00 9.313225746155E-10 0.000000000000E+00
   -5.596240234375E+01-1.798044204712E+00-9.313225746155E-10 1.000000000000E+00
    2.072700781250E+04-1.583399772644E+00-2.793967723846E-09 0.000000000000E+00
15 21  3 10 19 15  0.0 1.050028949976E-04-0.000000000000E+00 6.840000000000E+04
   -2.079853906250E+04 1.945510864258E+00 9.313225746155E-10 0.000000000000E+00
   -1.691113281250E+02-5.585803985596E-01-1.862645149231E-09 0.000000000000E+00
    1.477626220703E+04 2.734932899475E+00-2.793967723846E-09 0.000000000000E+00
13 21  3 10 19 15  0.0-5.182810127735E-05-0.000000000000E+00 6.840000000000E+04
    1.278105175781E+04 2.207304000854E+00-9.313225746155E-10 0.000000000000E+00
   -1.354679443359E+04-9.175863265991E-01 9.313225746155E-10-2.000000000000E+00
    1.741000488281E+04-2.330911636353E+00-9.313225746155E-10 0.000000000000E+00
23 21  3 10 19 15  0.0 3.711869940162E-04 1.818989403546E-12 6.840000000000E+04
    1.076374902344E+04-6.185970306396E-01-9.313225746155E-10 0.000000000000E+00
   -1.636538574219E+04 2.161207199097E+00 9.313225746155E-10 3.000000000000E+00
    1.633000000000E+04 2.573585510254E+00-1.862645149231E-09 0.000000000000E+00
